#dP2024 10  1 12  0  0.00000000      96 __u+U IGS20 EXT  IAC
## 2334 216000.00000000   900.00000000 60584 0.5000000000000
+   54   G01G02G03G04G05G06G07G08G09G10G11G12G13G14G15G16G17
+        G18G19G20G21G22G23G24G25G26G27G28G29G30G31G32R01R02
+        R03R04R05R07R08R09R11R12R14R15R16R17R18R19R20R21R22
+        R24R25R26  0  0  0  0  0  0  0  0  0  0  0  0  0  0
+          0  0  0  0  0  0  0  0  0  0  0  0  0  0  0  0  0
++        13  8  7  8  7  7  8  7  7  9  8  8  8  8  7  8  8
++         7  7  7  8  7  8  7  8  8  7  9  7  7  8  8  9  9
++         7  7  8  9  8  8  9  9  7  7  8  9  8  9  8  7  8
++         9  8  7  0  0  0  0  0  0  0  0  0  0  0  0  0  0
++         0  0  0  0  0  0  0  0  0  0  0  0  0  0  0  0  0
%c M  cc GPS ccc cccc cccc cccc cccc ccccc ccccc ccccc ccccc
%c cc cc ccc ccc cccc cccc cccc cccc ccccc ccccc ccccc ccccc
%f  0.0000000  0.000000000  0.00000000000  0.000000000000000
%f  0.0000000  0.000000000  0.00000000000  0.000000000000000
%i    0    0    0    0      0      0      0      0         0
%i    0    0    0    0      0      0      0      0         0
/* IAC                                ULTRA-RAPID PREDICTION
/* S/V CLOCKS ARE ALIGNED TO GNSS TIME                      
/* G:C1WC2W R:C1PC2P E:C1XC5X C:C2IC6I J:C1CC2S             
/* PCV:IGS20_2317 OL/AL:FES2004  NONE     YN ORB:CoN CLK:CoN
*  2024 10 01 22 30  0.00000000
PG01  12116.804572  -9783.188001  21099.693520    182.794664
PG02 -13018.730671 -13195.125015 -18678.918962   -346.180590
PG03 -12839.025434 -22950.720531   3955.957078    556.688449
PG04  -6851.073923 -14756.735698  20978.960861    454.049882
PG05   3426.653906  23765.072891  11099.706565   -188.430472
PG06 -22397.636611   5894.809424  13167.963849     -8.290517
PG07 -25169.266079  -7226.843270   6237.139342    -31.732863
PG08   2260.535121 -21923.522508 -14615.147653    371.065326
PG09 -15004.896345  -4623.806141  21334.976450    380.460845
PG10  14101.814951  -4029.731075 -21944.363054   -143.939516
PG11  -8916.803287  13390.001903  21156.679843   -740.290442
PG12   9314.213630  24888.462872    443.584136   -542.137223
PG13 -11744.240039  21635.279718  -9883.461388    679.387848
PG14 -16358.247595     11.866076 -20916.133913    508.164674
PG15   1029.475552  22150.191757 -15023.558248    210.800966
PG16   2809.518446 -21979.652448  13964.109696   -166.055144
PG17 -20445.306829  10802.039510 -12802.832073    609.412165
PG18  25520.328325   6361.255821   4520.290924   -656.237665
PG19 -19998.424197  16225.713319  -5651.138982    545.228352
PG20  -4256.547721  17961.342105  19221.638595    370.082318
PG21  -7296.216923 -14598.692663 -20744.924490    100.640752
PG22 -12568.380817   9102.133462 -21182.766165    -67.214916
PG23  17562.222374   9927.090616 -17362.054762    332.493372
PG24  10685.650580  14787.979885 -19878.205812   -485.880896
PG25  16706.252253  17529.054039  10866.900349    499.608308
PG26  10341.355568 -12961.294963  20519.658228     65.958278
PG27  11535.209173 -23018.692183  -5817.334683    -34.244536
PG28  23537.594625  -5775.099205  10859.318277   -431.270488
PG29  12969.887188   7840.898961  21778.385509   -574.176983
PG30 -26311.096964    410.574794  -4385.798554   -310.616216
PG31  14486.687976 -11593.720417  18906.893060   -223.972723
PG32  19590.060145 -12806.946725 -12146.014289   -591.454180
PR01   8926.919620 -22900.471946  -6841.775475     99.622849
PR02   1663.279934 -23240.106390  10334.980115    -24.944746
PR03  -7661.182339 -10738.128831  21858.557694    108.629318
PR04 -12246.926201   7114.320170  21241.946903    257.328551
PR05 -10629.588047  21266.138632   9287.289892    138.492923
PR07   7798.271112  10348.672334 -21948.665293     92.052834
PR08  12268.687146  -7423.682456 -21031.525000     -6.418829
PR09  10242.747378  18944.341307 -13582.314446    212.276453
PR11  17883.742121   6320.757467  17057.080493     10.369904
PR12   5294.546551 -10172.537926  22809.895156     45.506432
PR14 -19044.929276 -16723.397480  -2964.177440     26.999790
PR15 -17249.200320  -4966.722708 -18106.338409     75.294294
PR16  -5316.191570   9922.410935 -22875.728380     29.591773
PR17 -17969.557786  -3797.721214 -17662.894784    126.981345
PR18 -24920.167554   4484.854440  -3230.840065    164.822678
PR19 -20764.896388   9498.415654  11358.215468   -293.367204
PR20   -870.823412  10736.788849  23136.363847   -119.877162
PR21  17377.512228   4267.917866  18200.388575   -139.206315
PR22  25039.919647  -4403.984698   2074.903817     32.670172
PR24   -315.104175 -11108.920189 -22939.969005    -74.306443
PR25  18209.403089   4505.651373  17308.502111    -95.862295
PR26  12081.374197  -5852.264409 -21678.595386     53.855483
*  2024 10 01 22 45  0.00000000
PG01  13211.402993  -7516.004596  21394.836990    182.785593
PG02 -10728.760022 -13315.506199 -19943.643016   -346.173303
PG03 -12812.277543 -23300.819537   1075.713218    556.699692
PG04  -5390.114920 -16591.790274  19998.186710    454.056097
PG05   2576.629559  22595.791921  13483.033577   -188.431543
PG06 -23728.830039   5634.773923  10718.223205     -8.314761
PG07 -24362.358064  -7390.410928   8872.345100    -31.729372
PG08   3293.290952 -23099.328832 -12384.654255    371.076292
PG09 -13681.261658  -6721.363905  21657.787555    380.475556
PG10  15178.294457  -1744.720047 -21556.514998   -143.951144
PG11 -11251.229292  13023.723621  20245.826858   -740.293622
PG12   9052.433147  24904.576221  -2408.472744   -542.139697
PG13 -12550.658316  22191.610131  -7220.790929    679.389528
PG14 -17258.221313  -2166.727102 -20085.917397    508.172300
PG15    152.626806  23428.031344 -12878.508903    210.804965
PG16   3645.729578 -20385.167712  16030.159862   -166.046129
PG17 -19580.506063   9387.507781 -14993.616222    609.401164
PG18  24837.843143   6488.077776   7284.812978   -656.239227
PG19 -19679.996403  15453.822937  -8387.672982    545.232651
PG20  -5659.602553  16199.973275  20380.554547    370.081974
PG21  -4819.495930 -14654.926268 -21312.915417    100.640053
PG22 -13470.794325   6742.422592 -21475.781268    -67.218079
PG23  18310.643170  11644.741045 -15437.007449    332.500820
PG24   8449.536669  14926.096732 -20813.551866   -485.880222
PG25  16999.143258  18655.534727   8345.573124    499.608236
PG26  11641.444690 -10909.647412  21040.760068     65.950182
PG27  12035.815984 -23258.345511  -2998.191671    -34.244850
PG28  24623.807313  -5500.054406   8293.838529   -431.282516
PG29  11406.899867   9795.250712  21850.511376   -574.174662
PG30 -26646.265862     81.562619  -1623.329664   -310.609642
PG31  16572.842857 -11254.205429  17388.798379   -223.972301
PG32  18903.626631 -11391.109531 -14412.374309   -591.450522
PR01   8580.679730 -21922.610898  -9835.009296     99.623855
PR02   1778.348316 -24333.557402   7353.210905    -24.944959
PR03  -7111.298877 -13293.316476  20595.842100    108.629944
PR04 -11532.181292   4526.376163  22322.887661    257.330116
PR05 -10146.205128  20025.109479  12145.228408    138.493362
PR07   7238.951577  12931.154749 -20744.188606     92.053508
PR08  11586.396263  -4832.830819 -22144.600651     -6.418868
PR09   8914.602353  17681.949679 -16008.223176    212.278306
PR11  19392.941366   7576.278555  14735.614613     10.369112
PR12   7346.117553  -8236.423003  23022.906772     45.506799
PR14 -19251.024978 -16751.369631    226.629985     26.999816
PR15 -18843.338448  -6344.860397 -15963.353552     75.293901
PR16  -7387.681790   7982.680508 -23061.776425     29.591872
PR17 -15725.326413  -4332.492713 -19579.472503    126.984339
PR18 -24291.197997   4520.913972  -6396.103560    164.824312
PR19 -21906.424788   9977.814331   8421.106880   -293.368462
PR20  -3602.040332  11435.326597  22531.780046   -119.877649
PR21  15074.104127   4791.464756  20028.897940   -139.209208
PR22  24569.823147  -4436.564429   5246.444054     32.660958
PR24   2370.033305 -11915.438061 -22411.632308    -74.307884
PR25  16000.772502   4961.624403  19255.377002    -95.859394
PR26  11410.162413  -3200.701551 -22575.326068     53.876028
EOF
